{"type": "FeatureCollection", "features": [ {"type": "Feature", "properties": {"norad_id": 40664, "name": "SKY MEXICO-1", "group": "intelsat", "lat": 0.009849540536179889, "lon": 60.065135802971454, "alt_km": 35795.588978012565, "timestamp": "2025-12-12T03:50:52.084623+00:00", "meta": {"OBJECT_NAME": "SKY MEXICO-1", "OBJECT_ID": "2015-026B", "EPOCH": "2025-12-11T08:00:01.446048", "MEAN_MOTION": 1.00270477, "ECCENTRICITY": 0.00026887, "INCLINATION": 0.0327, "RA_OF_ASC_NODE": 74.4408, "ARG_OF_PERICENTER": 202.8128, "MEAN_ANOMALY": 204.276, "EPHEMERIS_TYPE": 0, "CLASSIFICATION_TYPE": "U", "NORAD_CAT_ID": 40664, "ELEMENT_SET_NO": 999, "REV_AT_EPOCH": 3857, "BSTAR": 0, "MEAN_MOTION_DOT": -2.28e-06, "MEAN_MOTION_DDOT": 0}, "tle": {"line1": "1 40664U 15026B   25345.33335007 -.00000228  00000+0  00000+0 0  9998", "line2": "2 40664   0.0327  74.4408 0002688 202.8128 204.2760  1.00270477 38570"}}, "geometry": {"type": "Point", "coordinates": [60.065135802971454, 0.009849540536179889]}}, {"type": "Feature", "properties": {"norad_id": 40874, "name": "INTELSAT 34 (IS-34)", "group": "intelsat", "lat": 0.02816535605451969, "lon": 83.30836048659158, "alt_km": 35786.255776577, "timestamp": "2025-12-12T03:50:52.084635+00:00", "meta": {"OBJECT_NAME": "INTELSAT 34 (IS-34)", "OBJECT_ID": "2015-039A", "EPOCH": "2025-12-11T13:14:54.075264", "MEAN_MOTION": 1.00269725, "ECCENTRICITY": 4.576e-05, "INCLINATION": 0.0129, "RA_OF_ASC_NODE": 327.2284, "ARG_OF_PERICENTER": 191.9547, "MEAN_ANOMALY": 64.5489, "EPHEMERIS_TYPE": 0, "CLASSIFICATION_TYPE": "U", "NORAD_CAT_ID": 40874, "ELEMENT_SET_NO": 999, "REV_AT_EPOCH": 3774, "BSTAR": 0, "MEAN_MOTION_DOT": -2.78e-06, "MEAN_MOTION_DDOT": 0}, "tle": {"line1": "1 40874U 15039A   25345.55201476 -.00000278  00000+0  00000+0 0  9996", "line2": "2 40874   0.0129 327.2284 0000457 191.9547  64.5489  1.00269725 37746"}}, "geometry": {"type": "Point", "coordinates": [83.30836048659158, 0.02816535605451969]}}, {"type": "Feature", "properties": {"norad_id": 41581, "name": "INTELSAT 31 (IS-31)", "group": "intelsat", "lat": 0.021132444688351307, "lon": 43.760835148508534, "alt_km": 35794.155992175096, "timestamp": "2025-12-12T03:50:52.084646+00:00", "meta": {"OBJECT_NAME": "INTELSAT 31 (IS-31)", "OBJECT_ID": "2016-035A", "EPOCH": "2025-12-11T02:47:08.911104", "MEAN_MOTION": 1.00272585, "ECCENTRICITY": 0.00019714, "INCLINATION": 0.0158, "RA_OF_ASC_NODE": 272.679, "ARG_OF_PERICENTER": 304.2877, "MEAN_ANOMALY": 169.8397, "EPHEMERIS_TYPE": 0, "CLASSIFICATION_TYPE": "U", "NORAD_CAT_ID": 41581, "ELEMENT_SET_NO": 999, "REV_AT_EPOCH": 3479, "BSTAR": 0, "MEAN_MOTION_DOT": -1.45e-06, "MEAN_MOTION_DDOT": 0}, "tle": {"line1": "1 41581U 16035A   25345.11607536 -.00000145  00000+0  00000+0 0  9991", "line2": "2 41581   0.0158 272.6790 0001971 304.2877 169.8397  1.00272585 34793"}}, "geometry": {"type": "Point", "coordinates": [43.760835148508534, 0.021132444688351307]}}, {"type": "Feature", "properties": {"norad_id": 41747, "name": "INTELSAT 36 (IS-36)", "group": "intelsat", "lat": -0.013207425198535105, "lon": -152.71194802711454, "alt_km": 35788.994702139345, "timestamp": "2025-12-12T03:50:52.084658+00:00", "meta": {"OBJECT_NAME": "INTELSAT 36 (IS-36)", "OBJECT_ID": "2016-053A", "EPOCH": "2025-12-11T13:36:53.851680", "MEAN_MOTION": 1.00270492, "ECCENTRICITY": 0.00014639, "INCLINATION": 0.0152, "RA_OF_ASC_NODE": 16.4771, "ARG_OF_PERICENTER": 305.6379, "MEAN_ANOMALY": 31.1188, "EPHEMERIS_TYPE": 0, "CLASSIFICATION_TYPE": "U", "NORAD_CAT_ID": 41747, "ELEMENT_SET_NO": 999, "REV_AT_EPOCH": 3406, "BSTAR": 0, "MEAN_MOTION_DOT": -1.7e-07, "MEAN_MOTION_DDOT": 0}, "tle": {"line1": "1 41747U 16053A   25345.56728995 -.00000017  00000+0  00000+0 0  9995", "line2": "2 41747   0.0152  16.4771 0001463 305.6379  31.1188  1.00270492 34066"}}, "geometry": {"type": "Point", "coordinates": [-152.71194802711454, -0.013207425198535105]}}, {"type": "Feature", "properties": {"norad_id": 41945, "name": "INTELSAT 32E (IS-32E)", "group": "intelsat", "lat": 0.023866951997128006, "lon": 95.63701621346956, "alt_km": 35787.089425611484, "timestamp": "2025-12-12T03:50:52.084669+00:00", "meta": {"OBJECT_NAME": "INTELSAT 32E (IS-32E)", "OBJECT_ID": "2017-007B", "EPOCH": "2025-12-11T09:52:56.783712", "MEAN_MOTION": 1.00269547, "ECCENTRICITY": 5.77e-05, "INCLINATION": 0.0346, "RA_OF_ASC_NODE": 80.6441, "ARG_OF_PERICENTER": 277.6658, "MEAN_ANOMALY": 187.1137, "EPHEMERIS_TYPE": 0, "CLASSIFICATION_TYPE": "U", "NORAD_CAT_ID": 41945, "ELEMENT_SET_NO": 999, "REV_AT_EPOCH": 3234, "BSTAR": 0, "MEAN_MOTION_DOT": -2.62e-06, "MEAN_MOTION_DDOT": 0}, "tle": {"line1": "1 41945U 17007B   25345.41176833 -.00000262  00000+0  00000+0 0  9999", "line2": "2 41945   0.0346  80.6441 0000577 277.6658 187.1137  1.00269547 32345"}}, "geometry": {"type": "Point", "coordinates": [95.63701621346956, 0.023866951997128006]}}, {"type": "Feature", "properties": {"norad_id": 42818, "name": "INTELSAT 35E (IS-35E)", "group": "intelsat", "lat": 0.03188031467933062, "lon": 104.29040117803567, "alt_km": 35795.91787596782, "timestamp": "2025-12-12T03:50:52.084681+00:00", "meta": {"OBJECT_NAME": "INTELSAT 35E (IS-35E)", "OBJECT_ID": "2017-041A", "EPOCH": "2025-12-11T03:04:29.748576", "MEAN_MOTION": 1.00269178, "ECCENTRICITY": 0.00022113, "INCLINATION": 0.0179, "RA_OF_ASC_NODE": 355.4658, "ARG_OF_PERICENTER": 273.4798, "MEAN_ANOMALY": 182.7563, "EPHEMERIS_TYPE": 0, "CLASSIFICATION_TYPE": "U", "NORAD_CAT_ID": 42818, "ELEMENT_SET_NO": 999, "REV_AT_EPOCH": 3093, "BSTAR": 0, "MEAN_MOTION_DOT": -2.33e-06, "MEAN_MOTION_DDOT": 0}, "tle": {"line1": "1 42818U 17041A   25345.12812209 -.00000233  00000+0  00000+0 0  9997", "line2": "2 42818   0.0179 355.4658 0002211 273.4798 182.7563  1.00269178 30935"}}, "geometry": {"type": "Point", "coordinates": [104.29040117803567, 0.03188031467933062]}}, {"type": "Feature", "properties": {"norad_id": 42950, "name": "INTELSAT 37E (IS-37E)", "group": "intelsat", "lat": 0.012842313906081902, "lon": 120.80049846847719, "alt_km": 35795.50101778934, "timestamp": "2025-12-12T03:50:52.084693+00:00", "meta": {"OBJECT_NAME": "INTELSAT 37E (IS-37E)", "OBJECT_ID": "2017-059A", "EPOCH": "2025-12-11T10:00:03.603168", "MEAN_MOTION": 1.00272034, "ECCENTRICITY": 0.00032041, "INCLINATION": 0.0006, "RA_OF_ASC_NODE": 358.3994, "ARG_OF_PERICENTER": 256.6399, "MEAN_ANOMALY": 317.3571, "EPHEMERIS_TYPE": 0, "CLASSIFICATION_TYPE": "U", "NORAD_CAT_ID": 42950, "ELEMENT_SET_NO": 999, "REV_AT_EPOCH": 3018, "BSTAR": 0, "MEAN_MOTION_DOT": -1.34e-06, "MEAN_MOTION_DDOT": 0}, "tle": {"line1": "1 42950U 17059A   25345.41670837 -.00000134  00000+0  00000+0 0  9994", "line2": "2 42950   0.0006 358.3994 0003204 256.6399 317.3571  1.00272034 30186"}}, "geometry": {"type": "Point", "coordinates": [120.80049846847719, 0.012842313906081902]}}, {"type": "Feature", "properties": {"norad_id": 43632, "name": "AZERSPACE 2 (IS-38)", "group": "intelsat", "lat": -0.007313950094739724, "lon": -176.0881535793757, "alt_km": 35785.30179154588, "timestamp": "2025-12-12T03:50:52.084705+00:00", "meta": {"OBJECT_NAME": "AZERSPACE 2 (IS-38)", "OBJECT_ID": "2018-074A", "EPOCH": "2025-12-11T06:30:38.803680", "MEAN_MOTION": 1.00271658, "ECCENTRICITY": 0.00014523, "INCLINATION": 0.0184, "RA_OF_ASC_NODE": 0.4784, "ARG_OF_PERICENTER": 266.8936, "MEAN_ANOMALY": 315.6295, "EPHEMERIS_TYPE": 0, "CLASSIFICATION_TYPE": "U", "NORAD_CAT_ID": 43632, "ELEMENT_SET_NO": 999, "REV_AT_EPOCH": 2656, "BSTAR": 0, "MEAN_MOTION_DOT": 1.43e-06, "MEAN_MOTION_DDOT": 0}, "tle": {"line1": "1 43632U 18074A   25345.27128245  .00000143  00000+0  00000+0 0  9994", "line2": "2 43632   0.0184   0.4784 0001452 266.8936 315.6295  1.00271658 26568"}}, "geometry": {"type": "Point", "coordinates": [-176.0881535793757, -0.007313950094739724]}}, {"type": "Feature", "properties": {"norad_id": 43633, "name": "HORIZONS-3E", "group": "intelsat", "lat": 0.02529056564981515, "lon": -52.1727666973063, "alt_km": 35782.23910042501, "timestamp": "2025-12-12T03:50:52.084717+00:00", "meta": {"OBJECT_NAME": "HORIZONS-3E", "OBJECT_ID": "2018-074B", "EPOCH": "2025-12-10T19:28:56.939232", "MEAN_MOTION": 1.00269493, "ECCENTRICITY": 0.0001199, "INCLINATION": 0.0426, "RA_OF_ASC_NODE": 178.6641, "ARG_OF_PERICENTER": 100.4377, "MEAN_ANOMALY": 261.9253, "EPHEMERIS_TYPE": 0, "CLASSIFICATION_TYPE": "U", "NORAD_CAT_ID": 43633, "ELEMENT_SET_NO": 999, "REV_AT_EPOCH": 2645, "BSTAR": 0, "MEAN_MOTION_DOT": -2.6e-07, "MEAN_MOTION_DDOT": 0}, "tle": {"line1": "1 43633U 18074B   25344.81177013 -.00000026  00000+0  00000+0 0  9992", "line2": "2 43633   0.0426 178.6641 0001199 100.4377 261.9253  1.00269493 26457"}}, "geometry": {"type": "Point", "coordinates": [-52.1727666973063, 0.02529056564981515]}}, {"type": "Feature", "properties": {"norad_id": 44333, "name": "AT&T T-16", "group": "intelsat", "lat": -0.0011647445258505939, "lon": 37.929375502173244, "alt_km": 35787.66980220903, "timestamp": "2025-12-12T03:50:52.084729+00:00", "meta": {"OBJECT_NAME": "AT&T T-16", "OBJECT_ID": "2019-034A", "EPOCH": "2025-12-10T23:20:04.800192", "MEAN_MOTION": 1.00268632, "ECCENTRICITY": 5.108e-05, "INCLINATION": 0.0297, "RA_OF_ASC_NODE": 74.5044, "ARG_OF_PERICENTER": 72.1437, "MEAN_ANOMALY": 182.4372, "EPHEMERIS_TYPE": 0, "CLASSIFICATION_TYPE": "U", "NORAD_CAT_ID": 44333, "ELEMENT_SET_NO": 999, "REV_AT_EPOCH": 2374, "BSTAR": 0, "MEAN_MOTION_DOT": -1.09e-06, "MEAN_MOTION_DDOT": 0}, "tle": {"line1": "1 44333U 19034A   25344.97227778 -.00000109  00000+0  00000+0 0  9990", "line2": "2 44333   0.0297  74.5044 0000510  72.1437 182.4372  1.00268632 23742"}}, "geometry": {"type": "Point", "coordinates": [37.929375502173244, -0.0011647445258505939]}}]}